start=new Date('2023-04-15T00:00:00.000Z').valueOf();
sats=[{"TLE_LINE1":"1 54841U 22177X   23104.46863184  .00003271  00000-0  25704-3 0  9995","RA_OF_ASC_NODE":"134.0045","ECCENTRICITY":"0.00014730","APOAPSIS":"560.077","PERIOD":"95.837","ARG_OF_PERICENTER":"274.9689","SEMIMAJOR_AXIS":"6937.190","OBJECT_NAME":"STARLINK-4659","MEAN_ANOMALY":"85.0985","CLASSIFICATION_TYPE":"U","COUNTRY_CODE":"US","SITE":"AFETR","INCLINATION":"43.0006","LAUNCH_DATE":"2022-12-28","BSTAR":"0.00025704000000","MEAN_MOTION_DOT":"0.00003271","TIME_SYSTEM":"UTC","OBJECT_ID":"2022-177X","REF_FRAME":"TEME","ELEMENT_SET_NO":"999","PERIAPSIS":"558.034","RCS_SIZE":"LARGE","MEAN_ELEMENT_THEORY":"SGP4","MEAN_MOTION_DDOT":"0.0000000000000","EPHEMERIS_TYPE":"0","EPOCH":"2023-04-14T11:14:49.790976","NORAD_CAT_ID":"54841","GP_ID":"230061251","TLE_LINE2":"2 54841  43.0006 134.0045 0001473 274.9689  85.0985 15.02544473 17473","CENTER_NAME":"EARTH","OBJECT_TYPE":"PAYLOAD","MEAN_MOTION":"15.02544473","REV_AT_EPOCH":"1747","FILE":"3887333","DECAY_DATE":null},{"MEAN_MOTION_DDOT":"0.0000000000000","NORAD_CAT_ID":"54842","EPOCH":"2023-04-14T18:51:05.148000","EPHEMERIS_TYPE":"0","PERIAPSIS":"557.962","ELEMENT_SET_NO":"999","MEAN_ELEMENT_THEORY":"SGP4","RCS_SIZE":"LARGE","REV_AT_EPOCH":"1654","MEAN_MOTION":"15.02560112","OBJECT_TYPE":"PAYLOAD","DECAY_DATE":null,"FILE":"3887587","GP_ID":"230067744","CENTER_NAME":"EARTH","TLE_LINE2":"2 54842  43.0017 132.0792 0001507 268.1803  91.8866 15.02560112 16542","COUNTRY_CODE":"US","MEAN_ANOMALY":"91.8866","CLASSIFICATION_TYPE":"U","INCLINATION":"43.0017","SITE":"AFETR","ECCENTRICITY":"0.00015070","RA_OF_ASC_NODE":"132.0792","TLE_LINE1":"1 54842U 22177Y   23104.78547625 -.00004698  00000-0 -33274-3 0  9997","SEMIMAJOR_AXIS":"6937.142","OBJECT_NAME":"STARLINK-5387","ARG_OF_PERICENTER":"268.1803","APOAPSIS":"560.053","PERIOD":"95.836","TIME_SYSTEM":"UTC","REF_FRAME":"TEME","OBJECT_ID":"2022-177Y","LAUNCH_DATE":"2022-12-28","MEAN_MOTION_DOT":"-0.00004698","BSTAR":"-0.00033274000000"},{"EPHEMERIS_TYPE":"0","EPOCH":"2023-04-14T19:05:29.450400","NORAD_CAT_ID":"54843","MEAN_MOTION_DDOT":"0.0000000000000","RCS_SIZE":"LARGE","MEAN_ELEMENT_THEORY":"SGP4","ELEMENT_SET_NO":"999","PERIAPSIS":"558.807","FILE":"3887587","DECAY_DATE":null,"OBJECT_TYPE":"PAYLOAD","MEAN_MOTION":"15.02533192","REV_AT_EPOCH":"1654","TLE_LINE2":"2 54843  42.9962 132.1564 0000408  54.7670 305.3211 15.02533192 16543","CENTER_NAME":"EARTH","GP_ID":"230067746","SITE":"AFETR","INCLINATION":"42.9962","CLASSIFICATION_TYPE":"U","MEAN_ANOMALY":"305.3211","COUNTRY_CODE":"US","APOAPSIS":"559.373","PERIOD":"95.838","ARG_OF_PERICENTER":"54.7670","SEMIMAJOR_AXIS":"6937.225","OBJECT_NAME":"STARLINK-5304","TLE_LINE1":"1 54843U 22177Z   23104.79547975 -.00000508  00000-0 -22575-4 0  9996","RA_OF_ASC_NODE":"132.1564","ECCENTRICITY":"0.00004080","OBJECT_ID":"2022-177Z","REF_FRAME":"TEME","TIME_SYSTEM":"UTC","MEAN_MOTION_DOT":"-0.00000508","BSTAR":"-0.00002257500000","LAUNCH_DATE":"2022-12-28"},{"ECCENTRICITY":"0.00017090","RA_OF_ASC_NODE":"133.4669","TLE_LINE1":"1 54844U 22177AA  23104.51401879  .00003237  00000-0  25469-3 0  9993","SEMIMAJOR_AXIS":"6937.249","OBJECT_NAME":"STARLINK-5388","ARG_OF_PERICENTER":"269.8694","PERIOD":"95.839","APOAPSIS":"560.300","COUNTRY_CODE":"US","MEAN_ANOMALY":"90.1953","CLASSIFICATION_TYPE":"U","INCLINATION":"43.0043","SITE":"AFETR","LAUNCH_DATE":"2022-12-28","MEAN_MOTION_DOT":"0.00003237","BSTAR":"0.00025469000000","TIME_SYSTEM":"UTC","REF_FRAME":"TEME","OBJECT_ID":"2022-177AA","PERIAPSIS":"557.929","ELEMENT_SET_NO":"999","MEAN_ELEMENT_THEORY":"SGP4","RCS_SIZE":"LARGE","MEAN_MOTION_DDOT":"0.0000000000000","NORAD_CAT_ID":"54844","EPOCH":"2023-04-14T12:20:11.223456","EPHEMERIS_TYPE":"0","GP_ID":"230061501","CENTER_NAME":"EARTH","TLE_LINE2":"2 54844  43.0043 133.4669 0001709 269.8694  90.1953 15.02525339 17486","REV_AT_EPOCH":"1748","OBJECT_TYPE":"PAYLOAD","MEAN_MOTION":"15.02525339","DECAY_DATE":null,"FILE":"3887333"},{"EPHEMERIS_TYPE":"0","EPOCH":"2023-04-14T10:55:39.076896","NORAD_CAT_ID":"54845","MEAN_MOTION_DDOT":"0.0000000000000","RCS_SIZE":"LARGE","MEAN_ELEMENT_THEORY":"SGP4","ELEMENT_SET_NO":"999","PERIAPSIS":"558.191","FILE":"3887333","DECAY_DATE":null,"OBJECT_TYPE":"PAYLOAD","MEAN_MOTION":"15.02542334","REV_AT_EPOCH":"1747","TLE_LINE2":"2 54845  43.0016 133.9029 0001255 263.0412  97.0288 15.02542334 17472","CENTER_NAME":"EARTH","GP_ID":"230061752","SITE":"AFETR","INCLINATION":"43.0016","MEAN_ANOMALY":"97.0288","CLASSIFICATION_TYPE":"U","COUNTRY_CODE":"US","PERIOD":"95.838","APOAPSIS":"559.933","ARG_OF_PERICENTER":"263.0412","OBJECT_NAME":"STARLINK-5082","SEMIMAJOR_AXIS":"6937.197","TLE_LINE1":"1 54845U 22177AB  23104.45531339  .00003048  00000-0  24059-3 0  9996","RA_OF_ASC_NODE":"133.9029","ECCENTRICITY":"0.00012550","OBJECT_ID":"2022-177AB","REF_FRAME":"TEME","TIME_SYSTEM":"UTC","MEAN_MOTION_DOT":"0.00003048","BSTAR":"0.00024059000000","LAUNCH_DATE":"2022-12-28"},{"APOAPSIS":"559.942","PERIOD":"95.837","ARG_OF_PERICENTER":"261.7724","SEMIMAJOR_AXIS":"6937.183","OBJECT_NAME":"STARLINK-5360","TLE_LINE1":"1 54846U 22177AC  23104.44976516  .00005630  00000-0  43136-3 0  9992","RA_OF_ASC_NODE":"133.8668","ECCENTRICITY":"0.00012900","SITE":"AFETR","INCLINATION":"43.0020","CLASSIFICATION_TYPE":"U","MEAN_ANOMALY":"98.2972","COUNTRY_CODE":"US","BSTAR":"0.00043136000000","MEAN_MOTION_DOT":"0.00005630","LAUNCH_DATE":"2022-12-28","OBJECT_ID":"2022-177AC","REF_FRAME":"TEME","TIME_SYSTEM":"UTC","RCS_SIZE":"LARGE","MEAN_ELEMENT_THEORY":"SGP4","ELEMENT_SET_NO":"999","PERIAPSIS":"558.153","EPHEMERIS_TYPE":"0","NORAD_CAT_ID":"54846","EPOCH":"2023-04-14T10:47:39.709824","MEAN_MOTION_DDOT":"0.0000000000000","TLE_LINE2":"2 54846  43.0020 133.8668 0001290 261.7724  98.2972 15.02547041 17479","CENTER_NAME":"EARTH","GP_ID":"230060500","FILE":"3887333","DECAY_DATE":null,"MEAN_MOTION":"15.02547041","OBJECT_TYPE":"PAYLOAD","REV_AT_EPOCH":"1747"},{"INCLINATION":"43.0023","SITE":"AFETR","COUNTRY_CODE":"US","MEAN_ANOMALY":"95.8586","CLASSIFICATION_TYPE":"U","OBJECT_NAME":"STARLINK-5061","SEMIMAJOR_AXIS":"6937.228","ARG_OF_PERICENTER":"264.2172","APOAPSIS":"559.607","PERIOD":"95.838","ECCENTRICITY":"0.00007400","RA_OF_ASC_NODE":"109.1146","TLE_LINE1":"1 54847U 22177AD  23104.27415883  .00000430  00000-0  46919-4 0  9995","REF_FRAME":"TEME","OBJECT_ID":"2022-177AD","TIME_SYSTEM":"UTC","BSTAR":"0.00004691900000","MEAN_MOTION_DOT":"0.00000430","LAUNCH_DATE":"2022-12-28","NORAD_CAT_ID":"54847","EPOCH":"2023-04-14T06:34:47.322912","EPHEMERIS_TYPE":"0","MEAN_MOTION_DDOT":"0.0000000000000","MEAN_ELEMENT_THEORY":"SGP4","RCS_SIZE":"LARGE","PERIAPSIS":"558.580","ELEMENT_SET_NO":"999","DECAY_DATE":null,"FILE":"3887333","REV_AT_EPOCH":"1774","MEAN_MOTION":"15.02532147","OBJECT_TYPE":"PAYLOAD","CENTER_NAME":"EARTH","TLE_LINE2":"2 54847  43.0023 109.1146 0000740 264.2172  95.8586 15.02532147 17749","GP_ID":"230060750"},{"APOAPSIS":"560.036","PERIOD":"95.838","SEMIMAJOR_AXIS":"6937.227","OBJECT_NAME":"STARLINK-5432","ARG_OF_PERICENTER":"274.9489","RA_OF_ASC_NODE":"121.7136","TLE_LINE1":"1 54848U 22177AE  23104.45014195  .00000141  00000-0  25486-4 0  9992","ECCENTRICITY":"0.00013600","SITE":"AFETR","INCLINATION":"43.0035","MEAN_ANOMALY":"85.1198","CLASSIFICATION_TYPE":"U","COUNTRY_CODE":"US","MEAN_MOTION_DOT":"0.00000141","BSTAR":"0.00002548600000","LAUNCH_DATE":"2022-12-28","REF_FRAME":"TEME","OBJECT_ID":"2022-177AE","TIME_SYSTEM":"UTC","MEAN_ELEMENT_THEORY":"SGP4","RCS_SIZE":"LARGE","PERIAPSIS":"558.149","ELEMENT_SET_NO":"999","EPHEMERIS_TYPE":"0","NORAD_CAT_ID":"54848","EPOCH":"2023-04-14T10:48:12.264480","MEAN_MOTION_DDOT":"0.0000000000000","TLE_LINE2":"2 54848  43.0035 121.7136 0001360 274.9489  85.1198 15.02532578 17615","CENTER_NAME":"EARTH","GP_ID":"230061001","DECAY_DATE":null,"FILE":"3887333","MEAN_MOTION":"15.02532578","OBJECT_TYPE":"PAYLOAD","REV_AT_EPOCH":"1761"},{"MEAN_MOTION_DDOT":"0.0000000000000","NORAD_CAT_ID":"54849","EPOCH":"2023-04-14T04:18:21.929472","EPHEMERIS_TYPE":"0","ELEMENT_SET_NO":"999","PERIAPSIS":"558.221","RCS_SIZE":"LARGE","MEAN_ELEMENT_THEORY":"SGP4","REV_AT_EPOCH":"1743","OBJECT_TYPE":"PAYLOAD","MEAN_MOTION":"15.02531304","FILE":"3887333","DECAY_DATE":null,"GP_ID":"230061252","CENTER_NAME":"EARTH","TLE_LINE2":"2 54849  43.0023 135.2754 0001262 284.8738  75.1964 15.02531304 17433","COUNTRY_CODE":"US","MEAN_ANOMALY":"75.1964","CLASSIFICATION_TYPE":"U","INCLINATION":"43.0023","SITE":"AFETR","ECCENTRICITY":"0.00012620","TLE_LINE1":"1 54849U 22177AF  23104.17942048  .00001176  00000-0  10209-3 0  9994","RA_OF_ASC_NODE":"135.2754","ARG_OF_PERICENTER":"284.8738","SEMIMAJOR_AXIS":"6937.231","OBJECT_NAME":"STARLINK-5434","PERIOD":"95.838","APOAPSIS":"559.971","TIME_SYSTEM":"UTC","OBJECT_ID":"2022-177AF","REF_FRAME":"TEME","LAUNCH_DATE":"2022-12-28","BSTAR":"0.00010209000000","MEAN_MOTION_DOT":"0.00001176"},{"MEAN_MOTION_DDOT":"0.0000000000000","EPOCH":"2023-04-14T09:04:28.801632","NORAD_CAT_ID":"54850","EPHEMERIS_TYPE":"0","PERIAPSIS":"558.268","ELEMENT_SET_NO":"999","MEAN_ELEMENT_THEORY":"SGP4","RCS_SIZE":"LARGE","REV_AT_EPOCH":"1760","OBJECT_TYPE":"PAYLOAD","MEAN_MOTION":"15.02537245","DECAY_DATE":null,"FILE":"3887333","GP_ID":"230060000","CENTER_NAME":"EARTH","TLE_LINE2":"2 54850  43.0032 122.0336 0001167 269.9878  90.0831 15.02537245 17606","COUNTRY_CODE":"US","CLASSIFICATION_TYPE":"U","MEAN_ANOMALY":"90.0831","INCLINATION":"43.0032","SITE":"AFETR","ECCENTRICITY":"0.00011670","RA_OF_ASC_NODE":"122.0336","TLE_LINE1":"1 54850U 22177AG  23104.37811113  .00000315  00000-0  38381-4 0  9992","OBJECT_NAME":"STARLINK-5087","SEMIMAJOR_AXIS":"6937.213","ARG_OF_PERICENTER":"269.9878","APOAPSIS":"559.887","PERIOD":"95.838","TIME_SYSTEM":"UTC","REF_FRAME":"TEME","OBJECT_ID":"2022-177AG","LAUNCH_DATE":"2022-12-28","MEAN_MOTION_DOT":"0.00000315","BSTAR":"0.00003838100000"}];
